{"type": "FeatureCollection", "features": [{"type": "Feature", "properties": {"norad_id": 50032, "name": "COSMOS 1408 DEB", "group": "cosmos-1408-debris", "lat": -8.589261184828173, "lon": -130.52381333160017, "alt_km": 422.6694280520869, "timestamp": "2025-12-22T15:43:49.275242+00:00", "meta": {"OBJECT_NAME": "COSMOS 1408 DEB", "OBJECT_ID": "1982-092RU", "EPOCH": "2025-12-22T04:02:31.933824", "MEAN_MOTION": 15.45783536, "ECCENTRICITY": 0.00162028, "INCLINATION": 82.5632, "RA_OF_ASC_NODE": 48.8449, "ARG_OF_PERICENTER": 173.5124, "MEAN_ANOMALY": 186.6338, "EPHEMERIS_TYPE": 0, "CLASSIFICATION_TYPE": "U", "NORAD_CAT_ID": 50032, "ELEMENT_SET_NO": 999, "REV_AT_EPOCH": 22749, "BSTAR": 0.00010470664, "MEAN_MOTION_DOT": 5.134e-05, "MEAN_MOTION_DDOT": 0}, "tle": {"line1": "1 50032U 82092RU  25356.16842516  .00005134  00000+0  10471-3 0  9993", "line2": "2 50032  82.5632  48.8449 0016202 173.5124 186.6338 15.45783536227495"}}, "geometry": {"type": "Point", "coordinates": [-130.52381333160017, -8.589261184828173]}}, {"type": "Feature", "properties": {"norad_id": 50058, "name": "COSMOS 1408 DEB", "group": "cosmos-1408-debris", "lat": -25.031839161763667, "lon": 55.48607867985423, "alt_km": 379.9628892908413, "timestamp": "2025-12-22T15:43:49.275263+00:00", "meta": {"OBJECT_NAME": "COSMOS 1408 DEB", "OBJECT_ID": "1982-092SW", "EPOCH": "2025-12-22T05:05:37.437504", "MEAN_MOTION": 15.64648266, "ECCENTRICITY": 0.00160261, "INCLINATION": 82.6121, "RA_OF_ASC_NODE": 59.4243, "ARG_OF_PERICENTER": 66.9716, "MEAN_ANOMALY": 293.3232, "EPHEMERIS_TYPE": 0, "CLASSIFICATION_TYPE": "U", "NORAD_CAT_ID": 50058, "ELEMENT_SET_NO": 999, "REV_AT_EPOCH": 22952, "BSTAR": 0.00035457608, "MEAN_MOTION_DOT": 0.00034625, "MEAN_MOTION_DDOT": 0}, "tle": {"line1": "1 50058U 82092SW  25356.21223886  .00034625  00000+0  35458-3 0  9999", "line2": "2 50058  82.6121  59.4243 0016026  66.9716 293.3232 15.64648266229529"}}, "geometry": {"type": "Point", "coordinates": [55.48607867985423, -25.031839161763667]}}, {"type": "Feature", "properties": {"norad_id": 50404, "name": "COSMOS 1408 DEB", "group": "cosmos-1408-debris", "lat": 71.29565562428299, "lon": 0.9987669199521891, "alt_km": 450.32444411166944, "timestamp": "2025-12-22T15:43:49.275276+00:00", "meta": {"OBJECT_NAME": "COSMOS 1408 DEB", "OBJECT_ID": "1982-092ADS", "EPOCH": "2025-12-21T15:28:45.909120", "MEAN_MOTION": 15.15078556, "ECCENTRICITY": 0.0168442, "INCLINATION": 82.2035, "RA_OF_ASC_NODE": 205.9075, "ARG_OF_PERICENTER": 168.3631, "MEAN_ANOMALY": 192.1574, "EPHEMERIS_TYPE": 0, "CLASSIFICATION_TYPE": "U", "NORAD_CAT_ID": 50404, "ELEMENT_SET_NO": 999, "REV_AT_EPOCH": 21328, "BSTAR": 0.0028703, "MEAN_MOTION_DOT": 0.00077658, "MEAN_MOTION_DDOT": 0}, "tle": {"line1": "1 50404U 82092ADS 25355.64497580  .00077658  00000+0  28703-2 0  9991", "line2": "2 50404  82.2035 205.9075 0168442 168.3631 192.1574 15.15078556213284"}}, "geometry": {"type": "Point", "coordinates": [0.9987669199521891, 71.29565562428299]}}, {"type": "Feature", "properties": {"norad_id": 50621, "name": "COSMOS 1408 DEB", "group": "cosmos-1408-debris", "lat": 80.7608554841412, "lon": 117.20680662846547, "alt_km": 371.8248165893019, "timestamp": "2025-12-22T15:43:49.275304+00:00", "meta": {"OBJECT_NAME": "COSMOS 1408 DEB", "OBJECT_ID": "1982-092ALR", "EPOCH": "2025-12-22T04:34:23.413728", "MEAN_MOTION": 15.57122494, "ECCENTRICITY": 0.00290745, "INCLINATION": 82.5697, "RA_OF_ASC_NODE": 64.3395, "ARG_OF_PERICENTER": 118.4206, "MEAN_ANOMALY": 241.9985, "EPHEMERIS_TYPE": 0, "CLASSIFICATION_TYPE": "U", "NORAD_CAT_ID": 50621, "ELEMENT_SET_NO": 999, "REV_AT_EPOCH": 22397, "BSTAR": 0.0003920223, "MEAN_MOTION_DOT": 0.00029066, "MEAN_MOTION_DDOT": 0}, "tle": {"line1": "1 50621U 82092ALR 25356.19054877  .00029066  00000+0  39202-3 0  9998", "line2": "2 50621  82.5697  64.3395 0029074 118.4206 241.9985 15.57122494223978"}}, "geometry": {"type": "Point", "coordinates": [117.20680662846547, 80.7608554841412]}}]}